start=new Date('2022-09-14T00:00:00.000Z').valueOf();
sats=[{"TLE_LINE1":"1 45075U 20006AH  22256.90587669  .00001155  00000-0  96444-4 0  9999","SITE":"AFETR","OBJECT_ID":"2020-006AH","COUNTRY_CODE":"US","APOAPSIS":"548.217","MEAN_MOTION_DOT":"0.00001155","NORAD_CAT_ID":"45075","TLE_LINE2":"2 45075  53.0551 220.3639 0001415  90.0137 270.1014 15.06392314144905","GP_ID":"212532409","EPHEMERIS_TYPE":"0","MEAN_MOTION_DDOT":"0.0000000000000","EPOCH":"2022-09-13T21:44:27.746016","CENTER_NAME":"EARTH","CLASSIFICATION_TYPE":"U","MEAN_ANOMALY":"270.1014","RA_OF_ASC_NODE":"220.3639","FILE":"3573088","OBJECT_TYPE":"PAYLOAD","PERIOD":"95.593","LAUNCH_DATE":"2020-01-29","INCLINATION":"53.0551","BSTAR":"0.00009644400000","SEMIMAJOR_AXIS":"6925.372","REF_FRAME":"TEME","OBJECT_NAME":"STARLINK-1174","DECAY_DATE":null,"TIME_SYSTEM":"UTC","MEAN_MOTION":"15.06392314","PERIAPSIS":"546.257","ELEMENT_SET_NO":"999","ARG_OF_PERICENTER":"90.0137","ECCENTRICITY":"0.00014150","REV_AT_EPOCH":"14490","RCS_SIZE":"LARGE","MEAN_ELEMENT_THEORY":"SGP4"},{"TLE_LINE1":"1 45076U 20006AJ  22256.91229700  .00000547  00000-0  55614-4 0  9998","SITE":"AFETR","OBJECT_ID":"2020-006AJ","COUNTRY_CODE":"US","APOAPSIS":"548.198","MEAN_MOTION_DOT":"0.00000547","NORAD_CAT_ID":"45076","TLE_LINE2":"2 45076  53.0544 220.3323 0001409  68.1645 291.9494 15.06397191144902","GP_ID":"212532660","EPHEMERIS_TYPE":"0","CENTER_NAME":"EARTH","MEAN_MOTION_DDOT":"0.0000000000000","EPOCH":"2022-09-13T21:53:42.460800","CLASSIFICATION_TYPE":"U","MEAN_ANOMALY":"291.9494","RA_OF_ASC_NODE":"220.3323","OBJECT_TYPE":"PAYLOAD","FILE":"3573088","PERIOD":"95.592","LAUNCH_DATE":"2020-01-29","INCLINATION":"53.0544","DECAY_DATE":null,"TIME_SYSTEM":"UTC","SEMIMAJOR_AXIS":"6925.357","BSTAR":"0.00005561400000","REF_FRAME":"TEME","OBJECT_NAME":"STARLINK-1180","MEAN_MOTION":"15.06397191","PERIAPSIS":"546.246","REV_AT_EPOCH":"14490","ECCENTRICITY":"0.00014090","ELEMENT_SET_NO":"999","ARG_OF_PERICENTER":"68.1645","RCS_SIZE":"LARGE","MEAN_ELEMENT_THEORY":"SGP4"},{"RCS_SIZE":"LARGE","MEAN_ELEMENT_THEORY":"SGP4","REF_FRAME":"TEME","SEMIMAJOR_AXIS":"6925.354","BSTAR":"0.00009715000000","OBJECT_NAME":"STARLINK-1177","TIME_SYSTEM":"UTC","DECAY_DATE":null,"MEAN_MOTION":"15.06398081","PERIAPSIS":"546.039","ELEMENT_SET_NO":"999","ECCENTRICITY":"0.00017050","ARG_OF_PERICENTER":"66.2644","REV_AT_EPOCH":"14488","OBJECT_TYPE":"PAYLOAD","FILE":"3573088","PERIOD":"95.592","LAUNCH_DATE":"2020-01-29","INCLINATION":"53.0527","CLASSIFICATION_TYPE":"U","MEAN_ANOMALY":"293.8524","RA_OF_ASC_NODE":"220.5555","GP_ID":"212533407","EPHEMERIS_TYPE":"0","MEAN_MOTION_DDOT":"0.0000000000000","EPOCH":"2022-09-13T20:46:04.282176","CENTER_NAME":"EARTH","TLE_LINE2":"2 45078  53.0527 220.5555 0001705  66.2644 293.8524 15.06398081144882","COUNTRY_CODE":"US","APOAPSIS":"548.400","MEAN_MOTION_DOT":"0.00001166","NORAD_CAT_ID":"45078","SITE":"AFETR","TLE_LINE1":"1 45078U 20006AL  22256.86532734  .00001166  00000-0  97150-4 0  9997","OBJECT_ID":"2020-006AL"},{"PERIAPSIS":"546.335","ELEMENT_SET_NO":"999","ECCENTRICITY":"0.00013180","ARG_OF_PERICENTER":"112.2448","REV_AT_EPOCH":"14489","BSTAR":"0.00005295000000","SEMIMAJOR_AXIS":"6925.382","REF_FRAME":"TEME","OBJECT_NAME":"STARLINK-1149","TIME_SYSTEM":"UTC","DECAY_DATE":null,"MEAN_MOTION":"15.06388933","MEAN_ELEMENT_THEORY":"SGP4","RCS_SIZE":"LARGE","RA_OF_ASC_NODE":"220.3430","CLASSIFICATION_TYPE":"U","MEAN_ANOMALY":"247.8681","LAUNCH_DATE":"2020-01-29","INCLINATION":"53.0561","OBJECT_TYPE":"PAYLOAD","FILE":"3573088","PERIOD":"95.593","TLE_LINE2":"2 45079  53.0561 220.3430 0001318 112.2448 247.8681 15.06388933144894","MEAN_MOTION_DDOT":"0.0000000000000","EPOCH":"2022-09-13T21:48:24.750720","CENTER_NAME":"EARTH","GP_ID":"212532159","EPHEMERIS_TYPE":"0","OBJECT_ID":"2020-006AM","TLE_LINE1":"1 45079U 20006AM  22256.90861980  .00000507  00000-0  52950-4 0  9998","SITE":"AFETR","MEAN_MOTION_DOT":"0.00000507","APOAPSIS":"548.160","NORAD_CAT_ID":"45079","COUNTRY_CODE":"US"},{"PERIAPSIS":"546.225","ELEMENT_SET_NO":"999","ECCENTRICITY":"0.00014460","ARG_OF_PERICENTER":"69.0219","REV_AT_EPOCH":"14484","SEMIMAJOR_AXIS":"6925.362","OBJECT_NAME":"STARLINK-1153","BSTAR":"0.00005332100000","REF_FRAME":"TEME","DECAY_DATE":null,"TIME_SYSTEM":"UTC","MEAN_MOTION":"15.06395703","MEAN_ELEMENT_THEORY":"SGP4","RCS_SIZE":"LARGE","RA_OF_ASC_NODE":"222.1040","CLASSIFICATION_TYPE":"U","MEAN_ANOMALY":"291.0925","LAUNCH_DATE":"2020-01-29","INCLINATION":"53.0546","FILE":"3573088","OBJECT_TYPE":"PAYLOAD","PERIOD":"95.592","TLE_LINE2":"2 45080  53.0546 222.1040 0001446  69.0219 291.0925 15.06395703144843","MEAN_MOTION_DDOT":"0.0000000000000","EPOCH":"2022-09-13T12:27:08.638272","CENTER_NAME":"EARTH","GP_ID":"212531910","EPHEMERIS_TYPE":"0","OBJECT_ID":"2020-006AN","SITE":"AFETR","TLE_LINE1":"1 45080U 20006AN  22256.51884998  .00000513  00000-0  53321-4 0  9991","APOAPSIS":"548.228","MEAN_MOTION_DOT":"0.00000513","NORAD_CAT_ID":"45080","COUNTRY_CODE":"US"},{"COUNTRY_CODE":"US","NORAD_CAT_ID":"45081","MEAN_MOTION_DOT":"0.00000940","APOAPSIS":"548.325","SITE":"AFETR","TLE_LINE1":"1 45081U 20006AP  22256.89386240  .00000940  00000-0  81971-4 0  9996","OBJECT_ID":"2020-006AP","EPHEMERIS_TYPE":"0","GP_ID":"212533160","CENTER_NAME":"EARTH","MEAN_MOTION_DDOT":"0.0000000000000","EPOCH":"2022-09-13T21:27:09.711360","TLE_LINE2":"2 45081  53.0527 220.4044 0001624  69.8998 290.2166 15.06404332144902","PERIOD":"95.592","OBJECT_TYPE":"PAYLOAD","FILE":"3573088","INCLINATION":"53.0527","LAUNCH_DATE":"2020-01-29","MEAN_ANOMALY":"290.2166","CLASSIFICATION_TYPE":"U","RA_OF_ASC_NODE":"220.4044","RCS_SIZE":"LARGE","MEAN_ELEMENT_THEORY":"SGP4","MEAN_MOTION":"15.06404332","TIME_SYSTEM":"UTC","DECAY_DATE":null,"SEMIMAJOR_AXIS":"6925.335","REF_FRAME":"TEME","BSTAR":"0.00008197100000","OBJECT_NAME":"STARLINK-1151","REV_AT_EPOCH":"14490","ELEMENT_SET_NO":"999","ARG_OF_PERICENTER":"69.8998","ECCENTRICITY":"0.00016240","PERIAPSIS":"546.076"},{"OBJECT_TYPE":"PAYLOAD","FILE":"3572069","PERIOD":"95.592","LAUNCH_DATE":"2020-01-29","INCLINATION":"53.0529","CLASSIFICATION_TYPE":"U","MEAN_ANOMALY":"292.1240","RA_OF_ASC_NODE":"222.8505","RCS_SIZE":"LARGE","MEAN_ELEMENT_THEORY":"SGP4","DECAY_DATE":null,"TIME_SYSTEM":"UTC","OBJECT_NAME":"STARLINK-1160","SEMIMAJOR_AXIS":"6925.329","BSTAR":"0.00027861000000","REF_FRAME":"TEME","MEAN_MOTION":"15.06406306","PERIAPSIS":"546.148","REV_AT_EPOCH":"14481","ELEMENT_SET_NO":"999","ARG_OF_PERICENTER":"67.9910","ECCENTRICITY":"0.00015110","COUNTRY_CODE":"US","APOAPSIS":"548.241","MEAN_MOTION_DOT":"0.00003871","NORAD_CAT_ID":"45082","TLE_LINE1":"1 45082U 20006AQ  22256.35203270  .00003871  00000-0  27861-3 0  9992","SITE":"AFETR","OBJECT_ID":"2020-006AQ","GP_ID":"212486392","EPHEMERIS_TYPE":"0","CENTER_NAME":"EARTH","MEAN_MOTION_DDOT":"0.0000000000000","EPOCH":"2022-09-13T08:26:55.625280","TLE_LINE2":"2 45082  53.0529 222.8505 0001511  67.9910 292.1240 15.06406306144818"},{"INCLINATION":"53.0523","LAUNCH_DATE":"2020-01-29","PERIOD":"95.592","OBJECT_TYPE":"PAYLOAD","FILE":"3572069","RA_OF_ASC_NODE":"242.7099","MEAN_ANOMALY":"274.2156","CLASSIFICATION_TYPE":"U","MEAN_ELEMENT_THEORY":"SGP4","RCS_SIZE":"LARGE","ECCENTRICITY":"0.00015520","ELEMENT_SET_NO":"999","ARG_OF_PERICENTER":"85.9011","REV_AT_EPOCH":"14454","PERIAPSIS":"546.131","MEAN_MOTION":"15.06402663","SEMIMAJOR_AXIS":"6925.340","BSTAR":"0.00003975200000","REF_FRAME":"TEME","OBJECT_NAME":"STARLINK-1190","DECAY_DATE":null,"TIME_SYSTEM":"UTC","NORAD_CAT_ID":"45083","MEAN_MOTION_DOT":"0.00000311","APOAPSIS":"548.280","COUNTRY_CODE":"US","OBJECT_ID":"2020-006AR","TLE_LINE1":"1 45083U 20006AR  22256.38431000  .00000311  00000-0  39752-4 0  9999","SITE":"AFETR","MEAN_MOTION_DDOT":"0.0000000000000","EPOCH":"2022-09-13T09:13:24.384000","CENTER_NAME":"EARTH","EPHEMERIS_TYPE":"0","GP_ID":"212485649","TLE_LINE2":"2 45083  53.0523 242.7099 0001552  85.9011 274.2156 15.06402663144548"},{"INCLINATION":"53.0561","LAUNCH_DATE":"2020-01-29","PERIOD":"95.593","FILE":"3573088","OBJECT_TYPE":"PAYLOAD","RA_OF_ASC_NODE":"200.4226","MEAN_ANOMALY":"285.2304","CLASSIFICATION_TYPE":"U","MEAN_ELEMENT_THEORY":"SGP4","RCS_SIZE":"LARGE","ELEMENT_SET_NO":"999","ARG_OF_PERICENTER":"74.8842","ECCENTRICITY":"0.00014170","REV_AT_EPOCH":"14518","PERIAPSIS":"546.279","MEAN_MOTION":"15.06384740","SEMIMAJOR_AXIS":"6925.395","OBJECT_NAME":"STARLINK-1173","BSTAR":"0.00020407000000","REF_FRAME":"TEME","TIME_SYSTEM":"UTC","DECAY_DATE":null,"NORAD_CAT_ID":"45084","APOAPSIS":"548.242","MEAN_MOTION_DOT":"0.00002758","COUNTRY_CODE":"US","OBJECT_ID":"2020-006AS","TLE_LINE1":"1 45084U 20006AS  22256.89666233  .00002758  00000-0  20407-3 0  9997","SITE":"AFETR","MEAN_MOTION_DDOT":"0.0000000000000","EPOCH":"2022-09-13T21:31:11.625312","CENTER_NAME":"EARTH","EPHEMERIS_TYPE":"0","GP_ID":"212532410","TLE_LINE2":"2 45084  53.0561 200.4226 0001417  74.8842 285.2304 15.06384740145186"},{"TLE_LINE2":"2 45085  53.0550 201.9161 0001454  78.3719 281.7433 15.06403417145134","CENTER_NAME":"EARTH","MEAN_MOTION_DDOT":"0.0000000000000","EPOCH":"2022-09-13T13:28:10.552800","GP_ID":"212486650","EPHEMERIS_TYPE":"0","OBJECT_ID":"2020-006AT","SITE":"AFETR","TLE_LINE1":"1 45085U 20006AT  22256.56123325  .00002781  00000-0  20553-3 0  9990","MEAN_MOTION_DOT":"0.00002781","APOAPSIS":"548.210","NORAD_CAT_ID":"45085","COUNTRY_CODE":"US","PERIAPSIS":"546.196","REV_AT_EPOCH":"14513","ELEMENT_SET_NO":"999","ECCENTRICITY":"0.00014540","ARG_OF_PERICENTER":"78.3719","TIME_SYSTEM":"UTC","DECAY_DATE":null,"SEMIMAJOR_AXIS":"6925.338","OBJECT_NAME":"STARLINK-1179","BSTAR":"0.00020553000000","REF_FRAME":"TEME","MEAN_MOTION":"15.06403417","MEAN_ELEMENT_THEORY":"SGP4","RCS_SIZE":"LARGE","RA_OF_ASC_NODE":"201.9161","CLASSIFICATION_TYPE":"U","MEAN_ANOMALY":"281.7433","LAUNCH_DATE":"2020-01-29","INCLINATION":"53.0550","FILE":"3572069","OBJECT_TYPE":"PAYLOAD","PERIOD":"95.592"}];
